{
  "type": "FeatureCollection",
  "features": [
    {
      "type": "Feature",
      "properties": {
        "norad_id": 33684,
        "name": "FENGYUN 1C DEB",
        "group": "fengyun-1c-debris",
        "lat": -68.5740258904989,
        "lon": 59.07287600178135,
        "alt_km": 588.5506852053086,
        "timestamp": "2025-12-06T05:40:09.531246+00:00",
        "meta_object_name": "FENGYUN 1C DEB",
        "meta_object_id": "1999-025DFV",
        "meta_epoch": "2025-12-03T22:32:33.696960",
        "meta_mean_motion": 14.72837728,
        "meta_eccentricity": 0.0288949,
        "meta_inclination": 99.0677,
        "meta_ra_of_asc_node": 32.4922,
        "meta_arg_of_pericenter": 7.9289,
        "meta_mean_anomaly": 352.634,
        "meta_ephemeris_type": 0,
        "meta_classification_type": "U",
        "meta_norad_cat_id": 33684,
        "meta_element_set_no": 999,
        "meta_rev_at_epoch": 92859,
        "meta_bstar": 0.0014257,
        "meta_mean_motion_dot": 0.00017805,
        "meta_mean_motion_ddot": 0,
        "tle_line1": "1 33684U 99025DFV 25337.93927890  .00017805  00000+0  14257-2 0  9997",
        "tle_line2": "2 33684  99.0677  32.4922 0288949   7.9289 352.6340 14.72837728928596"
      },
      "geometry": {
        "type": "Point",
        "coordinates": [
          59.07287600178135,
          -68.5740258904989
        ]
      }
    },
    {
      "type": "Feature",
      "properties": {
        "norad_id": 33687,
        "name": "FENGYUN 1C DEB",
        "group": "fengyun-1c-debris",
        "lat": 72.07978078938034,
        "lon": -165.91768638878963,
        "alt_km": 529.342882433687,
        "timestamp": "2025-12-06T05:40:09.531257+00:00",
        "meta_object_name": "FENGYUN 1C DEB",
        "meta_object_id": "1999-025DFY",
        "meta_epoch": "2025-12-02T06:16:02.710272",
        "meta_mean_motion": 15.17405521,
        "meta_eccentricity": 0.0119547,
        "meta_inclination": 98.9972,
        "meta_ra_of_asc_node": 340.0261,
        "meta_arg_of_pericenter": 11.3354,
        "meta_mean_anomaly": 349.0524,
        "meta_ephemeris_type": 0,
        "meta_classification_type": "U",
        "meta_norad_cat_id": 33687,
        "meta_element_set_no": 999,
        "meta_rev_at_epoch": 71349,
        "meta_bstar": 0.0018833,
        "meta_mean_motion_dot": 0.00045488,
        "meta_mean_motion_ddot": 0,
        "tle_line1": "1 33687U 99025DFY 25336.26114248  .00045488  00000+0  18833-2 0  9992",
        "tle_line2": "2 33687  98.9972 340.0261 0119547  11.3354 349.0524 15.17405521713495"
      },
      "geometry": {
        "type": "Point",
        "coordinates": [
          -165.91768638878963,
          72.07978078938034
        ]
      }
    },
    {
      "type": "Feature",
      "properties": {
        "norad_id": 33688,
        "name": "FENGYUN 1C DEB",
        "group": "fengyun-1c-debris",
        "lat": 27.187045720326754,
        "lon": -94.1840591517854,
        "alt_km": 763.4953528754868,
        "timestamp": "2025-12-06T05:40:09.531267+00:00",
        "meta_object_name": "FENGYUN 1C DEB",
        "meta_object_id": "1999-025DFZ",
        "meta_epoch": "2025-12-02T06:15:25.398432",
        "meta_mean_motion": 14.45255894,
        "meta_eccentricity": 0.0053128,
        "meta_inclination": 99.3492,
        "meta_ra_of_asc_node": 76.5882,
        "meta_arg_of_pericenter": 293.1663,
        "meta_mean_anomaly": 66.3934,
        "meta_ephemeris_type": 0,
        "meta_classification_type": "U",
        "meta_norad_cat_id": 33688,
        "meta_element_set_no": 999,
        "meta_rev_at_epoch": 91330,
        "meta_bstar": 0.0032471,
        "meta_mean_motion_dot": 0.00011555,
        "meta_mean_motion_ddot": 0,
        "tle_line1": "1 33688U 99025DFZ 25336.26071063  .00011555  00000+0  32471-2 0  9992",
        "tle_line2": "2 33688  99.3492  76.5882 0053128 293.1663  66.3934 14.45255894913305"
      },
      "geometry": {
        "type": "Point",
        "coordinates": [
          -94.1840591517854,
          27.187045720326754
        ]
      }
    },
    {
      "type": "Feature",
      "properties": {
        "norad_id": 33689,
        "name": "FENGYUN 1C DEB",
        "group": "fengyun-1c-debris",
        "lat": -17.41584355039892,
        "lon": 163.71120146495585,
        "alt_km": 716.4747772892915,
        "timestamp": "2025-12-06T05:40:09.531277+00:00",
        "meta_object_name": "FENGYUN 1C DEB",
        "meta_object_id": "1999-025DGA",
        "meta_epoch": "2025-11-29T19:02:12.805728",
        "meta_mean_motion": 14.44995922,
        "meta_eccentricity": 0.00478162,
        "meta_inclination": 99.5667,
        "meta_ra_of_asc_node": 339.4956,
        "meta_arg_of_pericenter": 189.1023,
        "meta_mean_anomaly": 349.9963,
        "meta_ephemeris_type": 0,
        "meta_classification_type": "U",
        "meta_norad_cat_id": 33689,
        "meta_element_set_no": 999,
        "meta_rev_at_epoch": 69343,
        "meta_bstar": 0.0010237814,
        "meta_mean_motion_dot": 3.568e-05,
        "meta_mean_motion_ddot": 0,
        "tle_line1": "1 33689U 99025DGA 25333.79320377  .00003568  00000+0  10238-2 0  9995",
        "tle_line2": "2 33689  99.5667 339.4956 0047816 189.1023 349.9963 14.44995922693439"
      },
      "geometry": {
        "type": "Point",
        "coordinates": [
          163.71120146495585,
          -17.41584355039892
        ]
      }
    },
    {
      "type": "Feature",
      "properties": {
        "norad_id": 33690,
        "name": "FENGYUN 1C DEB",
        "group": "fengyun-1c-debris",
        "lat": 49.00249092959512,
        "lon": 68.40111324581775,
        "alt_km": 696.2170775873374,
        "timestamp": "2025-12-06T05:40:09.531287+00:00",
        "meta_object_name": "FENGYUN 1C DEB",
        "meta_object_id": "1999-025DGB",
        "meta_epoch": "2025-12-04T05:27:20.885184",
        "meta_mean_motion": 14.51220952,
        "meta_eccentricity": 0.0031142,
        "meta_inclination": 98.6132,
        "meta_ra_of_asc_node": 76.3866,
        "meta_arg_of_pericenter": 76.4852,
        "meta_mean_anomaly": 283.9809,
        "meta_ephemeris_type": 0,
        "meta_classification_type": "U",
        "meta_norad_cat_id": 33690,
        "meta_element_set_no": 999,
        "meta_rev_at_epoch": 93096,
        "meta_bstar": 0.005632,
        "meta_mean_motion_dot": 0.00022544,
        "meta_mean_motion_ddot": 0,
        "tle_line1": "1 33690U 99025DGB 25338.22732506  .00022544  00000+0  56320-2 0  9998",
        "tle_line2": "2 33690  98.6132  76.3866 0031142  76.4852 283.9809 14.51220952930968"
      },
      "geometry": {
        "type": "Point",
        "coordinates": [
          68.40111324581775,
          49.00249092959512
        ]
      }
    },
    {
      "type": "Feature",
      "properties": {
        "norad_id": 33693,
        "name": "FENGYUN 1C DEB",
        "group": "fengyun-1c-debris",
        "lat": -16.32860028871407,
        "lon": 160.9390361643915,
        "alt_km": 857.5229524354008,
        "timestamp": "2025-12-06T05:40:09.531298+00:00",
        "meta_object_name": "FENGYUN 1C DEB",
        "meta_object_id": "1999-025DGE",
        "meta_epoch": "2025-12-02T10:41:23.670240",
        "meta_mean_motion": 13.71264167,
        "meta_eccentricity": 0.02264355,
        "meta_inclination": 99.2155,
        "meta_ra_of_asc_node": 154.5726,
        "meta_arg_of_pericenter": 25.8036,
        "meta_mean_anomaly": 335.4204,
        "meta_ephemeris_type": 0,
        "meta_classification_type": "U",
        "meta_norad_cat_id": 33693,
        "meta_element_set_no": 999,
        "meta_rev_at_epoch": 88090,
        "meta_bstar": 0.001988298,
        "meta_mean_motion_dot": 2.098e-05,
        "meta_mean_motion_ddot": 0,
        "tle_line1": "1 33693U 99025DGE 25336.44541285  .00002098  00000+0  19883-2 0  9990",
        "tle_line2": "2 33693  99.2155 154.5726 0226435  25.8036 335.4204 13.71264167880907"
      },
      "geometry": {
        "type": "Point",
        "coordinates": [
          160.9390361643915,
          -16.32860028871407
        ]
      }
    },
    {
      "type": "Feature",
      "properties": {
        "norad_id": 33698,
        "name": "FENGYUN 1C DEB",
        "group": "fengyun-1c-debris",
        "lat": 1.829097018602109,
        "lon": 119.63764769546003,
        "alt_km": 659.1654005094015,
        "timestamp": "2025-12-06T05:40:09.531308+00:00",
        "meta_object_name": "FENGYUN 1C DEB",
        "meta_object_id": "1999-025DGK",
        "meta_epoch": "2025-12-05T02:26:50.470656",
        "meta_mean_motion": 14.55682135,
        "meta_eccentricity": 0.01372315,
        "meta_inclination": 99.6204,
        "meta_ra_of_asc_node": 298.0216,
        "meta_arg_of_pericenter": 240.6716,
        "meta_mean_anomaly": 118.071,
        "meta_ephemeris_type": 0,
        "meta_classification_type": "U",
        "meta_norad_cat_id": 33698,
        "meta_element_set_no": 999,
        "meta_rev_at_epoch": 95525,
        "meta_bstar": 0.00064588489,
        "meta_mean_motion_dot": 3.137e-05,
        "meta_mean_motion_ddot": 0,
        "tle_line1": "1 33698U 99025DGK 25339.10197304  .00003137  00000+0  64588-3 0  9998",
        "tle_line2": "2 33698  99.6204 298.0216 0137231 240.6716 118.0710 14.55682135955256"
      },
      "geometry": {
        "type": "Point",
        "coordinates": [
          119.63764769546003,
          1.829097018602109
        ]
      }
    }
  ]
}